{
  "norad_id": 58533,
  "name": "STARLINK-31036",
  "history": [
    {
      "epoch": "2026-03-28T23:13:15.876768Z",
      "apogee_km": 476.1907022582827,
      "perigee_km": 474.3960629782905,
      "latitude_deg": -4.206968303260655e-05,
      "longitude_deg": 158.764423765628,
      "height_km": 476.24499404225014,
      "semi_major_axis_km": 6853.430382618286,
      "eccentricity": 0.00013093,
      "inclination_deg": 53.1623,
      "raan_deg": 333.461,
      "arg_perigee_deg": 93.4082,
      "mean_anomaly_deg": 266.7068,
      "mean_motion_rev_day": 15.30173772
    },
    {
      "epoch": "2026-03-29T02:21:22.047840Z",
      "apogee_km": 476.08732488431633,
      "perigee_km": 474.4767714080026,
      "latitude_deg": -2.0104294851335892e-05,
      "longitude_deg": 111.00047553932146,
      "height_km": 476.21569256474055,
      "semi_major_axis_km": 6853.419048146159,
      "eccentricity": 0.0001175,
      "inclination_deg": 53.1611,
      "raan_deg": 332.8515,
      "arg_perigee_deg": 92.5143,
      "mean_anomaly_deg": 267.5992,
      "mean_motion_rev_day": 15.30177568
    },
    {
      "epoch": "2026-03-30T01:52:08.648832Z",
      "apogee_km": 475.9815679327676,
      "perigee_km": 474.4916445107756,
      "latitude_deg": 9.246711607792942e-06,
      "longitude_deg": 112.78998482749239,
      "height_km": 476.076417174492,
      "semi_major_axis_km": 6853.373606221771,
      "eccentricity": 0.0001087,
      "inclination_deg": 53.1606,
      "raan_deg": 328.3008,
      "arg_perigee_deg": 85.49,
      "mean_anomaly_deg": 274.6225,
      "mean_motion_rev_day": 15.30192787
    }
  ]
}